{
  "type": "FeatureCollection",
  "features": [
    {
      "type": "Feature",
      "properties": {
        "norad_id": 34962,
        "name": "COSMOS 2251 DEB",
        "group": "cosmos-2251-debris",
        "lat": -62.255082545602185,
        "lon": 166.76619498067186,
        "alt_km": 731.3484788840306,
        "timestamp": "2025-12-09T07:41:33.607261+00:00",
        "meta_object_name": "COSMOS 2251 DEB",
        "meta_object_id": "1993-036AER",
        "meta_epoch": "2025-12-08T00:27:49.418208",
        "meta_mean_motion": 14.46495653,
        "meta_eccentricity": 0.0018762,
        "meta_inclination": 74.0294,
        "meta_ra_of_asc_node": 202.1816,
        "meta_arg_of_pericenter": 315.4302,
        "meta_mean_anomaly": 44.5347,
        "meta_ephemeris_type": 0,
        "meta_classification_type": "U",
        "meta_norad_cat_id": 34962,
        "meta_element_set_no": 999,
        "meta_rev_at_epoch": 87510,
        "meta_bstar": 0.00059226068,
        "meta_mean_motion_dot": 2.11e-05,
        "meta_mean_motion_ddot": 0,
        "tle_line1": "1 34962U 93036AER 25342.01932197  .00002110  00000+0  59226-3 0  9993",
        "tle_line2": "2 34962  74.0294 202.1816 0018762 315.4302  44.5347 14.46495653875109"
      },
      "geometry": {
        "type": "Point",
        "coordinates": [
          166.76619498067186,
          -62.255082545602185
        ]
      }
    },
    {
      "type": "Feature",
      "properties": {
        "norad_id": 34963,
        "name": "COSMOS 2251 DEB",
        "group": "cosmos-2251-debris",
        "lat": 42.784939112325105,
        "lon": -146.0980321469177,
        "alt_km": 729.2241547303429,
        "timestamp": "2025-12-09T07:41:33.607272+00:00",
        "meta_object_name": "COSMOS 2251 DEB",
        "meta_object_id": "1993-036AES",
        "meta_epoch": "2025-12-08T12:52:00.806016",
        "meta_mean_motion": 14.51014391,
        "meta_eccentricity": 0.0042597,
        "meta_inclination": 74.1718,
        "meta_ra_of_asc_node": 50.5866,
        "meta_arg_of_pericenter": 247.8405,
        "meta_mean_anomaly": 111.8233,
        "meta_ephemeris_type": 0,
        "meta_classification_type": "U",
        "meta_norad_cat_id": 34963,
        "meta_element_set_no": 999,
        "meta_rev_at_epoch": 86740,
        "meta_bstar": 0.0019565,
        "meta_mean_motion_dot": 7.813e-05,
        "meta_mean_motion_ddot": 0,
        "tle_line1": "1 34963U 93036AES 25342.53612044  .00007813  00000+0  19565-2 0  9993",
        "tle_line2": "2 34963  74.1718  50.5866 0042597 247.8405 111.8233 14.51014391867405"
      },
      "geometry": {
        "type": "Point",
        "coordinates": [
          -146.0980321469177,
          42.784939112325105
        ]
      }
    },
    {
      "type": "Feature",
      "properties": {
        "norad_id": 34964,
        "name": "COSMOS 2251 DEB",
        "group": "cosmos-2251-debris",
        "lat": 51.09242974084821,
        "lon": 14.658033954419809,
        "alt_km": 1030.6424262993341,
        "timestamp": "2025-12-09T07:41:33.607282+00:00",
        "meta_object_name": "COSMOS 2251 DEB",
        "meta_object_id": "1993-036AET",
        "meta_epoch": "2025-12-06T09:08:23.227296",
        "meta_mean_motion": 14.00561346,
        "meta_eccentricity": 0.02131727,
        "meta_inclination": 73.9719,
        "meta_ra_of_asc_node": 358.9078,
        "meta_arg_of_pericenter": 218.6047,
        "meta_mean_anomaly": 139.9683,
        "meta_ephemeris_type": 0,
        "meta_classification_type": "U",
        "meta_norad_cat_id": 34964,
        "meta_element_set_no": 999,
        "meta_rev_at_epoch": 84389,
        "meta_bstar": 0.0026176283,
        "meta_mean_motion_dot": 4.714e-05,
        "meta_mean_motion_ddot": 0,
        "tle_line1": "1 34964U 93036AET 25340.38082439  .00004714  00000+0  26176-2 0  9997",
        "tle_line2": "2 34964  73.9719 358.9078 0213172 218.6047 139.9683 14.00561346843899"
      },
      "geometry": {
        "type": "Point",
        "coordinates": [
          14.658033954419809,
          51.09242974084821
        ]
      }
    },
    {
      "type": "Feature",
      "properties": {
        "norad_id": 34965,
        "name": "COSMOS 2251 DEB",
        "group": "cosmos-2251-debris",
        "lat": -67.09580570146899,
        "lon": -2.5318581889787373,
        "alt_km": 718.191560721617,
        "timestamp": "2025-12-09T07:41:33.607293+00:00",
        "meta_object_name": "COSMOS 2251 DEB",
        "meta_object_id": "1993-036AEU",
        "meta_epoch": "2025-12-08T17:16:00.005664",
        "meta_mean_motion": 14.48691979,
        "meta_eccentricity": 0.00265332,
        "meta_inclination": 74.0504,
        "meta_ra_of_asc_node": 135.9933,
        "meta_arg_of_pericenter": 263.8339,
        "meta_mean_anomaly": 95.9798,
        "meta_ephemeris_type": 0,
        "meta_classification_type": "U",
        "meta_norad_cat_id": 34965,
        "meta_element_set_no": 999,
        "meta_rev_at_epoch": 87055,
        "meta_bstar": 0.00066763595,
        "meta_mean_motion_dot": 2.5e-05,
        "meta_mean_motion_ddot": 0,
        "tle_line1": "1 34965U 93036AEU 25342.71944451  .00002500  00000+0  66764-3 0  9997",
        "tle_line2": "2 34965  74.0504 135.9933 0026533 263.8339  95.9798 14.48691979870555"
      },
      "geometry": {
        "type": "Point",
        "coordinates": [
          -2.5318581889787373,
          -67.09580570146899
        ]
      }
    },
    {
      "type": "Feature",
      "properties": {
        "norad_id": 34967,
        "name": "COSMOS 2251 DEB",
        "group": "cosmos-2251-debris",
        "lat": -37.09816710674798,
        "lon": 92.77465721743222,
        "alt_km": 777.1559347064522,
        "timestamp": "2025-12-09T07:41:33.607303+00:00",
        "meta_object_name": "COSMOS 2251 DEB",
        "meta_object_id": "1993-036AEW",
        "meta_epoch": "2025-12-08T12:23:52.050624",
        "meta_mean_motion": 14.44233301,
        "meta_eccentricity": 0.00378,
        "meta_inclination": 73.9938,
        "meta_ra_of_asc_node": 261.7361,
        "meta_arg_of_pericenter": 49.0398,
        "meta_mean_anomaly": 311.4019,
        "meta_ephemeris_type": 0,
        "meta_classification_type": "U",
        "meta_norad_cat_id": 34967,
        "meta_element_set_no": 999,
        "meta_rev_at_epoch": 64896,
        "meta_bstar": 0.0012271,
        "meta_mean_motion_dot": 4.227e-05,
        "meta_mean_motion_ddot": 0,
        "tle_line1": "1 34967U 93036AEW 25342.51657466  .00004227  00000+0  12271-2 0  9995",
        "tle_line2": "2 34967  73.9938 261.7361 0037800  49.0398 311.4019 14.44233301648964"
      },
      "geometry": {
        "type": "Point",
        "coordinates": [
          92.77465721743222,
          -37.09816710674798
        ]
      }
    },
    {
      "type": "Feature",
      "properties": {
        "norad_id": 34968,
        "name": "COSMOS 2251 DEB",
        "group": "cosmos-2251-debris",
        "lat": -62.45189738005236,
        "lon": 106.86234382843253,
        "alt_km": 738.8515147764938,
        "timestamp": "2025-12-09T07:41:33.607313+00:00",
        "meta_object_name": "COSMOS 2251 DEB",
        "meta_object_id": "1993-036AEX",
        "meta_epoch": "2025-12-08T00:56:51.838368",
        "meta_mean_motion": 14.59392233,
        "meta_eccentricity": 0.00863684,
        "meta_inclination": 74.0389,
        "meta_ra_of_asc_node": 256.0282,
        "meta_arg_of_pericenter": 17.5095,
        "meta_mean_anomaly": 342.9015,
        "meta_ephemeris_type": 0,
        "meta_classification_type": "U",
        "meta_norad_cat_id": 34968,
        "meta_element_set_no": 999,
        "meta_rev_at_epoch": 88409,
        "meta_bstar": 0.0003041987,
        "meta_mean_motion_dot": 1.486e-05,
        "meta_mean_motion_ddot": 0,
        "tle_line1": "1 34968U 93036AEX 25342.03948887  .00001486  00000+0  30420-3 0  9994",
        "tle_line2": "2 34968  74.0389 256.0282 0086368  17.5095 342.9015 14.59392233884090"
      },
      "geometry": {
        "type": "Point",
        "coordinates": [
          106.86234382843253,
          -62.45189738005236
        ]
      }
    },
    {
      "type": "Feature",
      "properties": {
        "norad_id": 34969,
        "name": "COSMOS 2251 DEB",
        "group": "cosmos-2251-debris",
        "lat": -44.83429557900924,
        "lon": 12.832751850504772,
        "alt_km": 836.0424570837176,
        "timestamp": "2025-12-09T07:41:33.607353+00:00",
        "meta_object_name": "COSMOS 2251 DEB",
        "meta_object_id": "1993-036AEY",
        "meta_epoch": "2025-12-08T20:10:51.809088",
        "meta_mean_motion": 14.32246137,
        "meta_eccentricity": 0.00738514,
        "meta_inclination": 74.0147,
        "meta_ra_of_asc_node": 30.2676,
        "meta_arg_of_pericenter": 164.4463,
        "meta_mean_anomaly": 195.8982,
        "meta_ephemeris_type": 0,
        "meta_classification_type": "U",
        "meta_norad_cat_id": 34969,
        "meta_element_set_no": 999,
        "meta_rev_at_epoch": 65081,
        "meta_bstar": 0.00042631737,
        "meta_mean_motion_dot": 1.159e-05,
        "meta_mean_motion_ddot": 0,
        "tle_line1": "1 34969U 93036AEY 25342.84087742  .00001159  00000+0  42632-3 0  9993",
        "tle_line2": "2 34969  74.0147  30.2676 0073851 164.4463 195.8982 14.32246137650817"
      },
      "geometry": {
        "type": "Point",
        "coordinates": [
          12.832751850504772,
          -44.83429557900924
        ]
      }
    }
  ]
}